{"type": "FeatureCollection", "features": [ {"type": "Feature", "properties": {"norad_id": 34400, "name": "COSMOS 2251 DEB", "group": "cosmos-2251-debris", "lat": 30.206534002439106, "lon": -169.597201684856, "alt_km": 403.53655044415973, "timestamp": "2025-12-14T05:42:18.856838+00:00", "meta": {"OBJECT_NAME": "COSMOS 2251 DEB", "OBJECT_ID": "1993-036QR", "EPOCH": "2025-12-13T12:04:28.929504", "MEAN_MOTION": 15.53948081, "ECCENTRICITY": 0.00048407, "INCLINATION": 73.9656, "RA_OF_ASC_NODE": 21.6693, "ARG_OF_PERICENTER": 266.6732, "MEAN_ANOMALY": 93.3929, "EPHEMERIS_TYPE": 0, "CLASSIFICATION_TYPE": "U", "NORAD_CAT_ID": 34400, "ELEMENT_SET_NO": 999, "REV_AT_EPOCH": 89986, "BSTAR": 0.0047860933, "MEAN_MOTION_DOT": 0.00322026, "MEAN_MOTION_DDOT": 0}, "tle": {"line1": "1 34400U 93036QR  25347.50311261  .00322026  00000+0  47861-2 0  9994", "line2": "2 34400  73.9656  21.6693 0004840 266.6732  93.3929 15.53948081899863"}}, "geometry": {"type": "Point", "coordinates": [-169.597201684856, 30.206534002439106]}}, {"type": "Feature", "properties": {"norad_id": 34409, "name": "COSMOS 2251 DEB", "group": "cosmos-2251-debris", "lat": -70.12128019884648, "lon": 176.19999710042907, "alt_km": 734.3612116204295, "timestamp": "2025-12-14T05:42:18.856848+00:00", "meta": {"OBJECT_NAME": "COSMOS 2251 DEB", "OBJECT_ID": "1993-036RA", "EPOCH": "2025-12-13T14:14:46.154400", "MEAN_MOTION": 14.58030262, "ECCENTRICITY": 0.00798857, "INCLINATION": 74.0639, "RA_OF_ASC_NODE": 305.2158, "ARG_OF_PERICENTER": 19.2932, "MEAN_ANOMALY": 99.8645, "EPHEMERIS_TYPE": 0, "CLASSIFICATION_TYPE": "U", "NORAD_CAT_ID": 34409, "ELEMENT_SET_NO": 999, "REV_AT_EPOCH": 89205, "BSTAR": 0.0003814021, "MEAN_MOTION_DOT": 1.801e-05, "MEAN_MOTION_DDOT": 0}, "tle": {"line1": "1 34409U 93036RA  25347.59358975  .00001801  00000+0  38140-3 0  9991", "line2": "2 34409  74.0639 305.2158 0079885  19.2932  99.8645 14.58030262892054"}}, "geometry": {"type": "Point", "coordinates": [176.19999710042907, -70.12128019884648]}}, {"type": "Feature", "properties": {"norad_id": 34410, "name": "COSMOS 2251 DEB", "group": "cosmos-2251-debris", "lat": -73.27338514715815, "lon": 154.8368301666026, "alt_km": 529.5757379055976, "timestamp": "2025-12-14T05:42:18.856859+00:00", "meta": {"OBJECT_NAME": "COSMOS 2251 DEB", "OBJECT_ID": "1993-036RB", "EPOCH": "2025-12-13T05:30:15.889248", "MEAN_MOTION": 15.190182, "ECCENTRICITY": 0.00214629, "INCLINATION": 73.7353, "RA_OF_ASC_NODE": 260.6978, "ARG_OF_PERICENTER": 102.0887, "MEAN_ANOMALY": 51.7382, "EPHEMERIS_TYPE": 0, "CLASSIFICATION_TYPE": "U", "NORAD_CAT_ID": 34410, "ELEMENT_SET_NO": 999, "REV_AT_EPOCH": 89781, "BSTAR": 0.0039664388, "MEAN_MOTION_DOT": 0.00084505, "MEAN_MOTION_DDOT": 0}, "tle": {"line1": "1 34410U 93036RB  25347.22935057  .00084505  00000+0  39664-2 0  9998", "line2": "2 34410  73.7353 260.6978 0021462 102.0887  51.7382 15.19018200897817"}}, "geometry": {"type": "Point", "coordinates": [154.8368301666026, -73.27338514715815]}}, {"type": "Feature", "properties": {"norad_id": 34412, "name": "COSMOS 2251 DEB", "group": "cosmos-2251-debris", "lat": 46.99752277769682, "lon": -20.224598701062916, "alt_km": 598.2029717875803, "timestamp": "2025-12-14T05:42:18.856870+00:00", "meta": {"OBJECT_NAME": "COSMOS 2251 DEB", "OBJECT_ID": "1993-036RD", "EPOCH": "2025-12-13T06:15:24.906816", "MEAN_MOTION": 14.47145618, "ECCENTRICITY": 0.01871847, "INCLINATION": 73.9483, "RA_OF_ASC_NODE": 323.6299, "ARG_OF_PERICENTER": 58.5801, "MEAN_ANOMALY": 303.351, "EPHEMERIS_TYPE": 0, "CLASSIFICATION_TYPE": "U", "NORAD_CAT_ID": 34412, "ELEMENT_SET_NO": 999, "REV_AT_EPOCH": 87658, "BSTAR": 0.0022032383, "MEAN_MOTION_DOT": 9.999e-05, "MEAN_MOTION_DDOT": 0}, "tle": {"line1": "1 34412U 93036RD  25347.26070494  .00009999  00000+0  22032-2 0  9994", "line2": "2 34412  73.9483 323.6299 0187184  58.5801 303.3510 14.47145618876580"}}, "geometry": {"type": "Point", "coordinates": [-20.224598701062916, 46.99752277769682]}}, {"type": "Feature", "properties": {"norad_id": 34413, "name": "COSMOS 2251 DEB", "group": "cosmos-2251-debris", "lat": 73.40578669297231, "lon": -23.924757851523427, "alt_km": 805.951056466678, "timestamp": "2025-12-14T05:42:18.856880+00:00", "meta": {"OBJECT_NAME": "COSMOS 2251 DEB", "OBJECT_ID": "1993-036RE", "EPOCH": "2025-12-13T04:41:10.628160", "MEAN_MOTION": 14.29105669, "ECCENTRICITY": 0.00908854, "INCLINATION": 74.0312, "RA_OF_ASC_NODE": 264.0504, "ARG_OF_PERICENTER": 340.4866, "MEAN_ANOMALY": 142.8958, "EPHEMERIS_TYPE": 0, "CLASSIFICATION_TYPE": "U", "NORAD_CAT_ID": 34413, "ELEMENT_SET_NO": 999, "REV_AT_EPOCH": 87137, "BSTAR": 0.0023497473, "MEAN_MOTION_DOT": 6.207e-05, "MEAN_MOTION_DDOT": 0}, "tle": {"line1": "1 34413U 93036RE  25347.19526190  .00006207  00000+0  23497-2 0  9991", "line2": "2 34413  74.0312 264.0504 0090885 340.4866 142.8958 14.29105669871372"}}, "geometry": {"type": "Point", "coordinates": [-23.924757851523427, 73.40578669297231]}}, {"type": "Feature", "properties": {"norad_id": 34420, "name": "COSMOS 2251 DEB", "group": "cosmos-2251-debris", "lat": 27.518430025381203, "lon": 109.64006695758603, "alt_km": 738.1569909545788, "timestamp": "2025-12-14T05:42:18.856890+00:00", "meta": {"OBJECT_NAME": "COSMOS 2251 DEB", "OBJECT_ID": "1993-036RM", "EPOCH": "2025-12-13T12:09:29.134080", "MEAN_MOTION": 14.68301371, "ECCENTRICITY": 0.01066162, "INCLINATION": 74.0335, "RA_OF_ASC_NODE": 102.4756, "ARG_OF_PERICENTER": 223.4448, "MEAN_ANOMALY": 262.0216, "EPHEMERIS_TYPE": 0, "CLASSIFICATION_TYPE": "U", "NORAD_CAT_ID": 34420, "ELEMENT_SET_NO": 999, "REV_AT_EPOCH": 89781, "BSTAR": 0.00035003183, "MEAN_MOTION_DOT": 2.166e-05, "MEAN_MOTION_DDOT": 0}, "tle": {"line1": "1 34420U 93036RM  25347.50658720  .00002166  00000+0  35003-3 0  9996", "line2": "2 34420  74.0335 102.4756 0106616 223.4448 262.0216 14.68301371897815"}}, "geometry": {"type": "Point", "coordinates": [109.64006695758603, 27.518430025381203]}}, {"type": "Feature", "properties": {"norad_id": 34425, "name": "COSMOS 2251 DEB", "group": "cosmos-2251-debris", "lat": 72.35041401686787, "lon": 115.88555332626055, "alt_km": 680.5345487855075, "timestamp": "2025-12-14T05:42:18.856901+00:00", "meta": {"OBJECT_NAME": "COSMOS 2251 DEB", "OBJECT_ID": "1993-036RS", "EPOCH": "2025-12-13T14:32:58.171776", "MEAN_MOTION": 14.62136652, "ECCENTRICITY": 0.00247845, "INCLINATION": 74.0203, "RA_OF_ASC_NODE": 52.8556, "ARG_OF_PERICENTER": 179.1238, "MEAN_ANOMALY": 180.9977, "EPHEMERIS_TYPE": 0, "CLASSIFICATION_TYPE": "U", "NORAD_CAT_ID": 34425, "ELEMENT_SET_NO": 999, "REV_AT_EPOCH": 88753, "BSTAR": 0.0007287949, "MEAN_MOTION_DOT": 3.653e-05, "MEAN_MOTION_DDOT": 0}, "tle": {"line1": "1 34425U 93036RS  25347.60622884  .00003653  00000+0  72879-3 0  9998", "line2": "2 34425  74.0203  52.8556 0024784 179.1238 180.9977 14.62136652887531"}}, "geometry": {"type": "Point", "coordinates": [115.88555332626055, 72.35041401686787]}}, {"type": "Feature", "properties": {"norad_id": 34429, "name": "COSMOS 2251 DEB", "group": "cosmos-2251-debris", "lat": -28.103241279280045, "lon": -6.4147055010787035, "alt_km": 449.55548010970506, "timestamp": "2025-12-14T05:42:18.856911+00:00", "meta": {"OBJECT_NAME": "COSMOS 2251 DEB", "OBJECT_ID": "1993-036RW", "EPOCH": "2025-12-13T13:28:28.286400", "MEAN_MOTION": 15.42070519, "ECCENTRICITY": 0.00081074, "INCLINATION": 73.9696, "RA_OF_ASC_NODE": 166.2245, "ARG_OF_PERICENTER": 3.0241, "MEAN_ANOMALY": 53.2161, "EPHEMERIS_TYPE": 0, "CLASSIFICATION_TYPE": "U", "NORAD_CAT_ID": 34429, "ELEMENT_SET_NO": 999, "REV_AT_EPOCH": 89461, "BSTAR": 0.0050882875, "MEAN_MOTION_DOT": 0.00224151, "MEAN_MOTION_DDOT": 0}, "tle": {"line1": "1 34429U 93036RW  25347.56143850  .00224151  00000+0  50883-2 0  9996", "line2": "2 34429  73.9696 166.2245 0008107   3.0241  53.2161 15.42070519894616"}}, "geometry": {"type": "Point", "coordinates": [-6.4147055010787035, -28.103241279280045]}}, {"type": "Feature", "properties": {"norad_id": 34430, "name": "COSMOS 2251 DEB", "group": "cosmos-2251-debris", "lat": 69.07991445650147, "lon": 72.17907739238578, "alt_km": 755.2335907979123, "timestamp": "2025-12-14T05:42:18.856921+00:00", "meta": {"OBJECT_NAME": "COSMOS 2251 DEB", "OBJECT_ID": "1993-036RX", "EPOCH": "2025-12-13T07:32:54.360384", "MEAN_MOTION": 14.39636678, "ECCENTRICITY": 0.00603665, "INCLINATION": 74.0522, "RA_OF_ASC_NODE": 302.3016, "ARG_OF_PERICENTER": 11.7984, "MEAN_ANOMALY": 348.4568, "EPHEMERIS_TYPE": 0, "CLASSIFICATION_TYPE": "U", "NORAD_CAT_ID": 34430, "ELEMENT_SET_NO": 999, "REV_AT_EPOCH": 87963, "BSTAR": 0.00085503332, "MEAN_MOTION_DOT": 2.705e-05, "MEAN_MOTION_DDOT": 0}, "tle": {"line1": "1 34430U 93036RX  25347.31451806  .00002705  00000+0  85503-3 0  9991", "line2": "2 34430  74.0522 302.3016 0060366  11.7984 348.4568 14.39636678879636"}}, "geometry": {"type": "Point", "coordinates": [72.17907739238578, 69.07991445650147]}}, {"type": "Feature", "properties": {"norad_id": 34431, "name": "COSMOS 2251 DEB", "group": "cosmos-2251-debris", "lat": -50.527926186763395, "lon": 152.2025011089944, "alt_km": 844.1853491454967, "timestamp": "2025-12-14T05:42:18.856931+00:00", "meta": {"OBJECT_NAME": "COSMOS 2251 DEB", "OBJECT_ID": "1993-036RY", "EPOCH": "2025-12-13T14:50:02.496480", "MEAN_MOTION": 14.28777817, "ECCENTRICITY": 0.0068215, "INCLINATION": 74.0746, "RA_OF_ASC_NODE": 173.6098, "ARG_OF_PERICENTER": 159.0511, "MEAN_ANOMALY": 201.3458, "EPHEMERIS_TYPE": 0, "CLASSIFICATION_TYPE": "U", "NORAD_CAT_ID": 34431, "ELEMENT_SET_NO": 999, "REV_AT_EPOCH": 87155, "BSTAR": 0.00088657208, "MEAN_MOTION_DOT": 2.265e-05, "MEAN_MOTION_DDOT": 0}, "tle": {"line1": "1 34431U 93036RY  25347.61808445  .00002265  00000+0  88657-3 0  9994", "line2": "2 34431  74.0746 173.6098 0068215 159.0511 201.3458 14.28777817871554"}}, "geometry": {"type": "Point", "coordinates": [152.2025011089944, -50.527926186763395]}}]}